{
  "norad_id": 59699,
  "name": "STARLINK-32102",
  "history": [
    {
      "epoch": "2026-03-28T21:54:36.516960Z",
      "apogee_km": 483.76673585752906,
      "perigee_km": 482.113902331359,
      "latitude_deg": 2.4662823755611282e-05,
      "longitude_deg": 156.22311874465427,
      "height_km": 482.61529059612576,
      "semi_major_axis_km": 6861.077319094444,
      "eccentricity": 0.00012045,
      "inclination_deg": 43.0017,
      "raan_deg": 311.2018,
      "arg_perigee_deg": 277.0727,
      "mean_anomaly_deg": 82.9988,
      "mean_motion_rev_day": 15.27616328
    },
    {
      "epoch": "2026-03-28T23:28:45.799104Z",
      "apogee_km": 483.9472743436081,
      "perigee_km": 481.9301180889215,
      "latitude_deg": -9.136165008852628e-06,
      "longitude_deg": 132.25176047280513,
      "height_km": 482.5615251954336,
      "semi_major_axis_km": 6861.075696216265,
      "eccentricity": 0.000147,
      "inclination_deg": 43.0016,
      "raan_deg": 310.8336,
      "arg_perigee_deg": 278.7894,
      "mean_anomaly_deg": 81.2791,
      "mean_motion_rev_day": 15.2761687
    },
    {
      "epoch": "2026-03-29T23:01:06.698784Z",
      "apogee_km": 483.3876731361988,
      "perigee_km": 482.543208647774,
      "latitude_deg": -1.8438313575983144e-05,
      "longitude_deg": 132.65815095501296,
      "height_km": 482.7634691510309,
      "semi_major_axis_km": 6861.102440891987,
      "eccentricity": 6.154e-05,
      "inclination_deg": 43.0055,
      "raan_deg": 305.2938,
      "arg_perigee_deg": 267.0935,
      "mean_anomaly_deg": 92.9846,
      "mean_motion_rev_day": 15.27607938
    },
    {
      "epoch": "2026-03-30T14:42:39.597984Z",
      "apogee_km": 483.1963401422445,
      "perigee_km": 482.60423262443055,
      "latitude_deg": 3.259354297499242e-05,
      "longitude_deg": -107.06374081779789,
      "height_km": 482.38546650608515,
      "semi_major_axis_km": 6861.037286383337,
      "eccentricity": 4.315e-05,
      "inclination_deg": 42.9966,
      "raan_deg": 301.6034,
      "arg_perigee_deg": 348.3639,
      "mean_anomaly_deg": 11.7203,
      "mean_motion_rev_day": 15.27629698
    },
    {
      "epoch": "2026-03-30T22:33:26.582400Z",
      "apogee_km": 484.31015648674656,
      "perigee_km": 481.75382214470665,
      "latitude_deg": -2.6048868990621564e-06,
      "longitude_deg": 133.0676140554703,
      "height_km": 482.69252095126063,
      "semi_major_axis_km": 6861.168989315726,
      "eccentricity": 0.00018629,
      "inclination_deg": 43.0026,
      "raan_deg": 299.7528,
      "arg_perigee_deg": 275.2448,
      "mean_anomaly_deg": 84.8191,
      "mean_motion_rev_day": 15.27585713
    },
    {
      "epoch": "2026-03-31T00:07:36.016608Z",
      "apogee_km": 484.28858874422895,
      "perigee_km": 481.77397056973496,
      "latitude_deg": 4.444452204943986e-05,
      "longitude_deg": 109.09570676345267,
      "height_km": 482.705472108473,
      "semi_major_axis_km": 6861.168279656981,
      "eccentricity": 0.00018325,
      "inclination_deg": 43.0034,
      "raan_deg": 299.3846,
      "arg_perigee_deg": 274.7099,
      "mean_anomaly_deg": 85.3544,
      "mean_motion_rev_day": 15.2758595
    },
    {
      "epoch": "2026-04-01T20:03:59.705280Z",
      "apogee_km": 483.8326768327597,
      "perigee_km": 482.14072372827013,
      "latitude_deg": -4.292565125909022e-05,
      "longitude_deg": 157.84986509249154,
      "height_km": 482.87818433106406,
      "semi_major_axis_km": 6861.123700280515,
      "eccentricity": 0.0001233,
      "inclination_deg": 42.9986,
      "raan_deg": 289.0421,
      "arg_perigee_deg": 262.1802,
      "mean_anomaly_deg": 97.8909,
      "mean_motion_rev_day": 15.27600838
    },
    {
      "epoch": "2026-04-02T19:36:20.510784Z",
      "apogee_km": 483.2653655321983,
      "perigee_km": 482.7123587877077,
      "latitude_deg": -1.3164603880622805e-05,
      "longitude_deg": 158.26279100288866,
      "height_km": 482.90818602368574,
      "semi_major_axis_km": 6861.125862159953,
      "eccentricity": 4.03e-05,
      "inclination_deg": 43.0052,
      "raan_deg": 283.5084,
      "arg_perigee_deg": 238.854,
      "mean_anomaly_deg": 121.2272,
      "mean_motion_rev_day": 15.27600116
    },
    {
      "epoch": "2026-04-02T21:10:29.693568Z",
      "apogee_km": 484.0797440190154,
      "perigee_km": 481.77017334248376,
      "latitude_deg": -4.9386425247642974e-06,
      "longitude_deg": 134.28939274860448,
      "height_km": 482.6365855194945,
      "semi_major_axis_km": 6861.061958680749,
      "eccentricity": 0.00016831,
      "inclination_deg": 43.002,
      "raan_deg": 283.1377,
      "arg_perigee_deg": 273.2531,
      "mean_anomaly_deg": 86.8128,
      "mean_motion_rev_day": 15.27621458
    },
    {
      "epoch": "2026-04-03T05:01:16.811040Z",
      "apogee_km": 483.59138498683205,
      "perigee_km": 482.4297927000407,
      "latitude_deg": 4.265761831767083e-05,
      "longitude_deg": 14.423279690140426,
      "height_km": 482.6760266086068,
      "semi_major_axis_km": 6861.147588843436,
      "eccentricity": 8.465e-05,
      "inclination_deg": 43.0011,
      "raan_deg": 281.2901,
      "arg_perigee_deg": 281.0082,
      "mean_anomaly_deg": 79.0675,
      "mean_motion_rev_day": 15.2759286
    },
    {
      "epoch": "2026-04-04T20:15:11.506752Z",
      "apogee_km": 484.10007147647957,
      "perigee_km": 482.0362209684945,
      "latitude_deg": -3.332844912312979e-05,
      "longitude_deg": 135.10100375951214,
      "height_km": 482.6161046794464,
      "semi_major_axis_km": 6861.205146222486,
      "eccentricity": 0.0001504,
      "inclination_deg": 42.9996,
      "raan_deg": 272.057,
      "arg_perigee_deg": 282.8096,
      "mean_anomaly_deg": 77.2587,
      "mean_motion_rev_day": 15.27573638
    },
    {
      "epoch": "2026-04-05T11:56:46.042368Z",
      "apogee_km": 483.44231666325413,
      "perigee_km": 482.6324236406017,
      "latitude_deg": 4.3119254345011136e-05,
      "longitude_deg": -104.62999973680249,
      "height_km": 482.4592254588538,
      "semi_major_axis_km": 6861.174370151928,
      "eccentricity": 5.902e-05,
      "inclination_deg": 42.9944,
      "raan_deg": 268.3643,
      "arg_perigee_deg": 330.7348,
      "mean_anomaly_deg": 29.3471,
      "mean_motion_rev_day": 15.27583916
    },
    {
      "epoch": "2026-04-05T18:13:23.432736Z",
      "apogee_km": 484.285393285043,
      "perigee_km": 481.7632303868113,
      "latitude_deg": 3.141662413144142e-05,
      "longitude_deg": 159.4784047047444,
      "height_km": 482.6033108515696,
      "semi_major_axis_km": 6861.161311835926,
      "eccentricity": 0.0001838,
      "inclination_deg": 42.9993,
      "raan_deg": 266.8863,
      "arg_perigee_deg": 279.0324,
      "mean_anomaly_deg": 81.032,
      "mean_motion_rev_day": 15.27588277
    },
    {
      "epoch": "2026-04-07T11:01:28.672032Z",
      "apogee_km": 484.49167401897375,
      "perigee_km": 481.3873113490945,
      "latitude_deg": -2.8072329278668603e-05,
      "longitude_deg": -103.81934962852324,
      "height_km": 482.5193175077021,
      "semi_major_axis_km": 6861.076492684034,
      "eccentricity": 0.00022623,
      "inclination_deg": 42.9983,
      "raan_deg": 257.2861,
      "arg_perigee_deg": 277.3051,
      "mean_anomaly_deg": 82.7543,
      "mean_motion_rev_day": 15.27616604
    },
    {
      "epoch": "2026-04-08T10:33:48.493440Z",
      "apogee_km": 485.0624395035602,
      "perigee_km": 480.78772338433737,
      "latitude_deg": 8.80687306780332e-06,
      "longitude_deg": -103.40810821964877,
      "height_km": 484.45240875485484,
      "semi_major_axis_km": 6861.062081443949,
      "eccentricity": 0.00031152,
      "inclination_deg": 42.9978,
      "raan_deg": 251.7466,
      "arg_perigee_deg": 145.17,
      "mean_anomaly_deg": 214.9356,
      "mean_motion_rev_day": 15.27621417
    },
    {
      "epoch": "2026-04-09T16:22:46.977888Z",
      "apogee_km": 483.33284783630097,
      "perigee_km": 482.5937701110188,
      "latitude_deg": 2.1557394896075198e-05,
      "longitude_deg": 161.11040676440848,
      "height_km": 483.0793433115139,
      "semi_major_axis_km": 6861.10030897366,
      "eccentricity": 5.386e-05,
      "inclination_deg": 42.9999,
      "raan_deg": 244.7333,
      "arg_perigee_deg": 202.8734,
      "mean_anomaly_deg": 157.2094,
      "mean_motion_rev_day": 15.2760865
    },
    {
      "epoch": "2026-04-11T09:10:51.072384Z",
      "apogee_km": 485.6638838772906,
      "perigee_km": 480.3629590616638,
      "latitude_deg": 4.8437343096410587e-05,
      "longitude_deg": -102.18427204174918,
      "height_km": 482.05361123501206,
      "semi_major_axis_km": 6861.150421469477,
      "eccentricity": 0.0003863,
      "inclination_deg": 42.9986,
      "raan_deg": 235.1313,
      "arg_perigee_deg": 286.1673,
      "mean_anomaly_deg": 73.8754,
      "mean_motion_rev_day": 15.27591914
    },
    {
      "epoch": "2026-04-12T18:08:07.854144Z",
      "apogee_km": 484.1710669945578,
      "perigee_km": 481.85090119225697,
      "latitude_deg": -3.6584138272941505e-05,
      "longitude_deg": 114.3882120790771,
      "height_km": 482.8831015891223,
      "semi_major_axis_km": 6861.147984093407,
      "eccentricity": 0.00016908,
      "inclination_deg": 43.0009,
      "raan_deg": 227.3772,
      "arg_perigee_deg": 265.298,
      "mean_anomaly_deg": 94.7678,
      "mean_motion_rev_day": 15.27592728
    },
    {
      "epoch": "2026-04-14T14:04:30.991584Z",
      "apogee_km": 484.0646657876305,
      "perigee_km": 482.0186623100117,
      "latitude_deg": 2.923714366779619e-06,
      "longitude_deg": 163.14720772230515,
      "height_km": 482.9396128265835,
      "semi_major_axis_km": 6861.178664048821,
      "eccentricity": 0.0001491,
      "inclination_deg": 42.9993,
      "raan_deg": 217.0371,
      "arg_perigee_deg": 263.1916,
      "mean_anomaly_deg": 96.8766,
      "mean_motion_rev_day": 15.27582482
    },
    {
      "epoch": "2026-04-15T13:36:51.899040Z",
      "apogee_km": 485.3796009947364,
      "perigee_km": 480.6975347872067,
      "latitude_deg": -3.0381206129053997e-05,
      "longitude_deg": 163.55604140145292,
      "height_km": 482.53774925061845,
      "semi_major_axis_km": 6861.175567890971,
      "eccentricity": 0.0003412,
      "inclination_deg": 43.0052,
      "raan_deg": 211.4998,
      "arg_perigee_deg": 276.8574,
      "mean_anomaly_deg": 83.1889,
      "mean_motion_rev_day": 15.27583516
    },
    {
      "epoch": "2026-04-16T14:43:21.812160Z",
      "apogee_km": 484.16967476342415,
      "perigee_km": 481.8451190417527,
      "latitude_deg": 3.072845088251175e-05,
      "longitude_deg": 139.99120897270166,
      "height_km": 482.75490024231704,
      "semi_major_axis_km": 6861.144396902588,
      "eccentricity": 0.0001694,
      "inclination_deg": 43.0008,
      "raan_deg": 205.5907,
      "arg_perigee_deg": 271.4556,
      "mean_anomaly_deg": 88.6102,
      "mean_motion_rev_day": 15.27593926
    },
    {
      "epoch": "2026-04-17T12:41:33.250848Z",
      "apogee_km": 483.98780798897405,
      "perigee_km": 482.0399272576569,
      "latitude_deg": -2.1982308492569665e-06,
      "longitude_deg": 164.3711445665222,
      "height_km": 482.6770086635905,
      "semi_major_axis_km": 6861.150867623315,
      "eccentricity": 0.00014195,
      "inclination_deg": 43.0004,
      "raan_deg": 200.4206,
      "arg_perigee_deg": 276.6999,
      "mean_anomaly_deg": 83.3691,
      "mean_motion_rev_day": 15.27591765
    },
    {
      "epoch": "2026-04-18T12:13:53.758272Z",
      "apogee_km": 483.943789157237,
      "perigee_km": 482.03776786036633,
      "latitude_deg": 3.670424337510715e-05,
      "longitude_deg": 164.77912539065352,
      "height_km": 483.0262601588826,
      "semi_major_axis_km": 6861.127778508801,
      "eccentricity": 0.0001389,
      "inclination_deg": 42.9995,
      "raan_deg": 194.8807,
      "arg_perigee_deg": 254.2347,
      "mean_anomaly_deg": 105.8352,
      "mean_motion_rev_day": 15.27599476
    }
  ]
}